COSMOS 2251 DEB         
1 36379U 93036AZG 17345.07869390  .00000126  00000-0  55814-4 0  9997
2 36379  74.0142 257.4635 0048716 356.9056  61.0937 14.32207144229423
